NORAD_CAT_ID,OBJECT_NAME,OBJECT_TYPE,EPOCH,MEAN_MOTION,ECCENTRICITY,INCLINATION,RA_OF_ASC_NODE,ARG_OF_PERICENTER,MEAN_ANOMALY,BSTAR,MEAN_MOTION_DOT,MEAN_MOTION_DDOT,TLE_LINE0,TLE_LINE1,TLE_LINE2,SEMIMAJOR_AXIS,PERIOD,APOGEE,PERIGEE,DECAYED
53545.0,STARLINK-4475,PAYLOAD,2023-06-05 11:01:29,15.08846886,8.28e-05,53.2158,270.2431,94.396,265.7126,-4.0748e-06,-3.53e-06,0.0,0 STARLINK-4475,1 53545U 22101U   23156.45937428 -.00000353  00000-0 -40748-5 0  9998,2 53545  53.2158 270.2431 0000828  94.3960 265.7126 15.08846886 44096,6917.859,95.437,540.297,539.152,0.0
53545.0,STARLINK-4475,PAYLOAD,2023-06-05 14:12:16,15.08845614,7.21e-05,53.2163,269.6483,86.4658,273.6416,-6.1957e-06,-3.86e-06,0.0,0 STARLINK-4475,1 53545U 22101U   23156.59185466 -.00000386  00000-0 -61957-5 0  9991,2 53545  53.2163 269.6483 0000721  86.4658 273.6416 15.08845614 44806,6917.863,95.437,540.227,539.229,0.0
53545.0,STARLINK-4475,PAYLOAD,2023-06-05 17:23:02,15.08851127,7.24e-05,53.2161,269.0531,86.3686,273.7389,-2.5576e-05,-6.95e-06,0.0,0 STARLINK-4475,1 53545U 22101U   23156.72433079 -.00000695  00000-0 -25576-4 0  9991,2 53545  53.2161 269.0531 0000724  86.3686 273.7389 15.08851127 44823,6917.846,95.437,540.212,539.211,0.0
53545.0,STARLINK-4475,PAYLOAD,2023-06-06 07:41:31,15.08833479,7.31e-05,53.2148,266.377,91.7596,268.348,2.3185e-05,8.1e-07,0.0,0 STARLINK-4475,1 53545U 22101U   23157.32050058  .00000081  00000-0  23185-4 0  9991,2 53545  53.2148 266.3770 0000731  91.7596 268.3480 15.08833479 44227,6917.9,95.438,540.271,539.26,0.0
53545.0,STARLINK-4475,PAYLOAD,2023-06-06 12:27:40,15.08835121,7.41e-05,53.2158,265.4857,89.3001,270.8076,3.8207e-05,3.2e-06,0.0,0 STARLINK-4475,1 53545U 22101U   23157.51921977  .00000320  00000-0  38207-4 0  9996,2 53545  53.2158 265.4857 0000741  89.3001 270.8076 15.08835121 44943,6917.895,95.438,540.273,539.248,0.0
53545.0,STARLINK-4475,PAYLOAD,2023-06-06 17:13:49,15.08841832,6.89e-05,53.2158,264.5937,84.9972,275.1099,3.3341e-05,2.43e-06,0.0,0 STARLINK-4475,1 53545U 22101U   23157.71793550  .00000243  00000-0  33341-4 0  9990,2 53545  53.2158 264.5937 0000689  84.9972 275.1099 15.08841832 44287,6917.875,95.437,540.216,539.263,0.0
53545.0,STARLINK-4475,PAYLOAD,2023-06-06 18:49:12,15.08841996,6.96e-05,53.2158,264.2963,84.816,275.2911,4.2589e-05,3.9e-06,0.0,0 STARLINK-4475,1 53545U 22101U   23157.78417535  .00000390  00000-0  42589-4 0  9990,2 53545  53.2158 264.2963 0000696  84.8160 275.2911 15.08841996 44981,6917.874,95.437,540.221,539.258,0.0
53545.0,STARLINK-4475,PAYLOAD,2023-06-07 07:32:18,15.08834133,7.91e-05,53.2159,261.9178,75.7361,284.3719,2.9715e-05,1.85e-06,0.0,0 STARLINK-4475,1 53545U 22101U   23158.31410258  .00000185  00000-0  29715-4 0  9993,2 53545  53.2159 261.9178 0000791  75.7361 284.3719 15.08834133 44377,6917.898,95.438,540.311,539.216,0.0
53545.0,STARLINK-4475,PAYLOAD,2023-06-07 17:04:36,15.08843672,9.4e-05,53.2147,260.1325,93.5675,266.5425,6.4271e-05,7.35e-06,0.0,0 STARLINK-4475,1 53545U 22101U   23158.71153505  .00000735  00000-0  64271-4 0  9993,2 53545  53.2147 260.1325 0000940  93.5675 266.5425 15.08843672 44432,6917.869,95.437,540.384,539.084,0.0
53545.0,STARLINK-4475,PAYLOAD,2023-06-07 18:39:59,15.08847728,8.2e-05,53.2153,259.8357,89.8238,270.2848,9.5078e-05,1.226e-05,0.0,0 STARLINK-4475,1 53545U 22101U   23158.77777136  .00001226  00000-0  95078-4 0  9996,2 53545  53.2153 259.8357 0000820  89.8238 270.2848 15.08847728 45134,6917.857,95.437,540.289,539.155,0.0
53545.0,STARLINK-4475,PAYLOAD,2023-06-08 12:09:14,15.0883829,7.77e-05,53.216,256.5643,75.5355,284.5723,7.4719e-05,9.02e-06,0.0,0 STARLINK-4475,1 53545U 22101U   23159.50642056  .00000902  00000-0  74719-4 0  9999,2 53545  53.2160 256.5643 0000777  75.5355 284.5723 15.08838290 45243,6917.886,95.438,540.288,539.213,0.0
53545.0,STARLINK-4475,PAYLOAD,2023-06-08 13:44:37,15.08840505,7.83e-05,53.216,256.2669,82.1541,277.954,0.00010416,1.37e-05,0.0,0 STARLINK-4475,1 53545U 22101U   23159.57265819  .00001370  00000-0  10416-3 0  9997,2 53545  53.2160 256.2669 0000783  82.1541 277.9540 15.08840505 44565,6917.879,95.438,540.286,539.202,0.0
53545.0,STARLINK-4475,PAYLOAD,2023-06-08 18:30:46,15.08848148,7.86e-05,53.2158,255.3752,80.9778,279.1303,0.00016058,2.269e-05,0.0,0 STARLINK-4475,1 53545U 22101U   23159.77137255  .00002269  00000-0  16058-3 0  9997,2 53545  53.2158 255.3752 0000786  80.9778 279.1303 15.08848148 44591,6917.855,95.437,540.264,539.177,0.0
53545.0,STARLINK-4475,PAYLOAD,2023-06-09 10:24:38,15.0884046,6.59e-05,53.216,252.4017,64.7915,295.3145,-5.3198e-06,-3.72e-06,0.0,0 STARLINK-4475,1 53545U 22101U   23160.43378247 -.00000372  00000-0 -53198-5 0  9993,2 53545  53.2160 252.4017 0000659  64.7915 295.3145 15.08840460 45389,6917.879,95.438,540.2,539.288,0.0
53545.0,STARLINK-4475,PAYLOAD,2023-06-09 13:35:24,15.08845673,7.9e-05,53.2163,251.807,66.5877,293.5198,3.3851e-05,2.51e-06,0.0,0 STARLINK-4475,1 53545U 22101U   23160.56625855  .00000251  00000-0  33851-4 0  9994,2 53545  53.2163 251.8070 0000790  66.5877 293.5198 15.08845673 44712,6917.863,95.437,540.275,539.182,0.0
53545.0,STARLINK-4475,PAYLOAD,2023-06-09 23:07:43,15.08834317,6.05e-05,53.2152,250.0256,95.2339,264.8722,0.00014239,1.979e-05,0.0,0 STARLINK-4475,1 53545U 22101U   23160.96370174  .00001979  00000-0  14239-3 0  9995,2 53545  53.2152 250.0256 0000605  95.2339 264.8722 15.08834317 44777,6917.898,95.438,540.181,539.344,0.0
53545.0,STARLINK-4475,PAYLOAD,2023-06-10 11:50:49,15.08836652,8.54e-05,53.2158,247.6453,86.0279,274.0811,5.2643e-05,5.5e-06,0.0,0 STARLINK-4475,1 53545U 22101U   23161.49362485  .00000550  00000-0  52643-4 0  9996,2 53545  53.2158 247.6453 0000854  86.0279 274.0811 15.08836652 45543,6917.891,95.438,540.346,539.165,0.0
53545.0,STARLINK-4475,PAYLOAD,2023-06-10 13:26:12,15.08843067,7.6e-05,53.2157,247.3467,84.1531,275.9548,2.043e-05,3.8e-07,0.0,0 STARLINK-4475,1 53545U 22101U   23161.55986167  .00000038  00000-0  20430-4 0  9992,2 53545  53.2157 247.3467 0000760  84.1531 275.9548 15.08843067 45556,6917.871,95.437,540.262,539.21,0.0
53545.0,STARLINK-4475,PAYLOAD,2023-06-11 11:41:35,15.08846346,7.21e-05,53.2146,243.182,102.634,257.4733,-9.5067e-06,-4.39e-06,0.0,0 STARLINK-4475,1 53545U 22101U   23162.48722161 -.00000439  00000-0 -95067-5 0  9993,2 53545  53.2146 243.1820 0000721 102.6340 257.4733 15.08846346 45691,6917.861,95.437,540.225,539.227,0.0
53545.0,STARLINK-4475,PAYLOAD,2023-06-11 14:52:21,15.08847377,7.54e-05,53.2149,242.5875,91.6117,268.4961,8.4313e-05,1.055e-05,0.0,0 STARLINK-4475,1 53545U 22101U   23162.61969880  .00001055  00000-0  84313-4 0  9993,2 53545  53.2149 242.5875 0000754  91.6117 268.4961 15.08847377 45029,6917.858,95.437,540.244,539.201,0.0
53545.0,STARLINK-4475,PAYLOAD,2023-06-11 22:49:17,15.0884153,7.82e-05,53.2151,241.101,81.2764,278.8317,0.00010045,1.311e-05,0.0,0 STARLINK-4475,1 53545U 22101U   23162.95090225  .00001311  00000-0  10045-3 0  9993,2 53545  53.2151 241.1010 0000782  81.2764 278.8317 15.08841530 45072,6917.876,95.437,540.282,539.2,0.0
53545.0,STARLINK-4475,PAYLOAD,2023-06-12 11:32:23,15.08840113,7.55e-05,53.2147,238.7224,78.5803,281.5274,0.00015677,2.208e-05,0.0,0 STARLINK-4475,1 53545U 22101U   23163.48082238  .00002208  00000-0  15677-3 0  9999,2 53545  53.2147 238.7224 0000755  78.5803 281.5274 15.08840113 45843,6917.88,95.438,540.267,539.223,0.0
53545.0,STARLINK-4475,PAYLOAD,2023-06-13 14:33:56,15.08839017,9.02e-05,53.2149,233.6665,80.5448,279.5646,2.348e-05,8.6e-07,0.0,0 STARLINK-4475,1 53545U 22101U   23164.60690652  .00000086  00000-0  23480-4 0  9993,2 53545  53.2149 233.6665 0000902  80.5448 279.5646 15.08839017 45324,6917.883,95.438,540.372,539.124,0.0
53545.0,STARLINK-4475,PAYLOAD,2023-06-14 04:52:25,15.08838367,9.06e-05,53.2149,230.9906,81.0459,279.0636,3.054e-05,1.98e-06,0.0,0 STARLINK-4475,1 53545U 22101U   23165.20306752  .00000198  00000-0  30540-4 0  9994,2 53545  53.2149 230.9906 0000906  81.0459 279.0636 15.08838367 46102,6917.885,95.438,540.377,539.124,0.0
53545.0,STARLINK-4475,PAYLOAD,2023-06-14 14:24:43,15.08842465,9.28e-05,53.2148,229.2066,80.5871,279.5226,5.6415e-05,6.1e-06,0.0,0 STARLINK-4475,1 53545U 22101U   23165.60050385  .00000610  00000-0  56415-4 0  9994,2 53545  53.2148 229.2066 0000928  80.5871 279.5226 15.08842465 46165,6917.873,95.437,540.38,539.096,0.0
53545.0,STARLINK-4475,PAYLOAD,2023-06-14 23:57:02,15.08838075,0.0001161,53.2142,227.4224,110.581,249.5307,6.0776e-05,6.8e-06,0.0,0 STARLINK-4475,1 53545U 22101U   23165.99794642  .00000680  00000-0  60776-4 0  9999,2 53545  53.2142 227.4224 0001161 110.5810 249.5307 15.08838075 45531,6917.886,95.438,540.554,538.948,0.0
53545.0,STARLINK-4475,PAYLOAD,2023-06-15 09:29:21,15.08834848,9.01e-05,53.2144,225.6381,84.156,275.9535,3.8483e-05,3.25e-06,0.0,0 STARLINK-4475,1 53545U 22101U   23166.39539033  .00000325  00000-0  38483-4 0  9991,2 53545  53.2144 225.6381 0000901  84.1560 275.9535 15.08834848 46289,6917.896,95.438,540.384,539.138,0.0
53545.0,STARLINK-4475,PAYLOAD,2023-06-16 10:55:31,15.08838877,9.7e-05,53.215,220.8813,85.6937,274.4166,3.9845e-05,3.46e-06,0.0,0 STARLINK-4475,1 53545U 22101U   23167.45522977  .00000346  00000-0  39845-4 0  9994,2 53545  53.2150 220.8813 0000970  85.6937 274.4166 15.08838877 45754,6917.884,95.438,540.42,539.078,0.0
53545.0,STARLINK-4475,PAYLOAD,2023-06-16 20:27:50,15.08837576,9.59e-05,53.215,219.0969,81.8413,278.2688,6.6609e-05,7.72e-06,0.0,0 STARLINK-4475,1 53545U 22101U   23167.85267005  .00000772  00000-0  66609-4 0  9997,2 53545  53.2150 219.0969 0000959  81.8413 278.2688 15.08837576 46500,6917.888,95.438,540.416,539.089,0.0
53545.0,STARLINK-4475,PAYLOAD,2023-06-17 12:21:41,15.08841838,9.81e-05,53.215,216.1231,82.5968,277.5135,9.5984e-05,1.24e-05,0.0,0 STARLINK-4475,1 53545U 22101U   23168.51506736  .00001240  00000-0  95984-4 0  9997,2 53545  53.2150 216.1231 0000981  82.5968 277.5135 15.08841838 46604,6917.875,95.437,540.418,539.061,0.0
